GLOBALSTAR M084         
1 38040U 11080A   26025.59749685 -.00000086  00000+0  10088-3 0  9997
2 38040  52.0010  91.3773 0000890 132.3263  14.9664 12.62267450650750
GLOBALSTAR M080         
1 38041U 11080B   26025.89095197 -.00000095  00000+0  51087-4 0  9998
2 38041  52.0062  92.1533 0000196  91.9528  79.1629 12.62265678650916
GLOBALSTAR M082         
1 38042U 11080C   26025.25288701 -.00000092  00000+0  63342-4 0  9998
2 38042  52.0084  49.5806 0000163  53.6285  26.4060 12.62267007651541
GLOBALSTAR M092         
1 38043U 11080D   26025.80093328 -.00000077  00000+0  14763-3 0  9994
2 38043  52.0078 138.3009 0000861 110.3614  61.2765 12.62269715650062
GLOBALSTAR M090         
1 38044U 11080E   26025.97753875 -.00000093  00000+0  58598-4 0  9996
2 38044  52.0134  41.2852 0000402  86.4494 286.8666 12.62266238651753
GLOBALSTAR M086         
1 38045U 11080F   26025.05468527 -.00000110  00000+0 -36000-4 0  9998
2 38045  51.9911  44.2568 0001470  95.0889 294.9445 12.62282054651582
GLOBALSTAR M097         
1 39072U 13005A   26025.78936134 -.00000090  00000+0  79485-4 0  9992
2 39072  52.0068 316.8079 0000763  61.4802 298.6141 12.62268341598924
GLOBALSTAR M093         
1 39073U 13005B   26025.76316592 -.00000075  00000+0  16332-3 0  9995
2 39073  52.0126 310.1818 0000990  52.6881 307.4077 12.62272122598872
